STARLINK-32014          
1 60150U 24120R   26068.39907168 -.00002977  00000+0 -88447-4 0  9997
2 60150  53.1582 321.1328 0001315  96.7773 263.3377 15.30186573 96338
OBJECT P                
1 43771U 18099P   26067.64574755  .00027159  00000+0  91235-3 0  9999
2 43771  97.4366 130.8712 00077117 281.0146  79.0227 15.30787313398146
